55157,ONEWEB-0616,2023,109.29,148.0,+,87.92,Active,1,LEO,USA,UK,Commercial,Communications,Falcon,1 55157U 23004T   24021.85289674  .00000011  00000+0 -36424-5 0  9996,2 55157  87.9220 180.3167 0002671 113.2817 246.8595 13.17650627 52169,13.17650627,0.0002671,LEO
55158,ONEWEB-0617,2023,109.8,148.0,+,87.9,Active,1,LEO,USA,UK,Commercial,Communications,Falcon,1 55158U 23004U   24022.03537895 -.00000445  00000+0 -12909-2 0  9990,2 55158  87.8965 195.4364 0000988  91.2350 268.8891 13.11415499 50898,13.11415499,9.88e-05,LEO
55159,ONEWEB-0618,2023,100.93,148.0,+,86.91,Active,1,LEO,USA,UK,Commercial,Communications,Falcon,1 55159U 23004V   24022.39367430  .00002278  00000+0  93231-3 0  9998,2 55159  86.9130 145.3750 0014520  45.8896 314.3488 14.26778662 54415,14.26778662,0.001452,LEO
55160,ONEWEB-0619,2023,109.29,148.0,+,87.92,Active,1,LEO,USA,UK,Commercial,Communications,Falcon,1 55160U 23004W   24022.49200078 -.00000040  00000+0 -13610-3 0  9995,2 55160  87.9222 180.1664 0001660 122.4222 237.7070 13.17648928 52140,13.17648928,0.000166,LEO
55161,ONEWEB-0620,2023,109.8,148.0,+,87.9,Active,1,LEO,USA,UK,Commercial,Communications,Falcon,1 55161U 23004X   24022.03050818 -.00000220  00000+0 -65633-3 0  9993,2 55161  87.8967 195.4442 0001160  77.5578 282.5680 13.11416914 50862,13.11416914,0.000116,LEO
55162,ONEWEB-0621,2023,109.8,148.0,+,87.9,Active,1,LEO,USA,UK,Commercial,Communications,Falcon,1 55162U 23004Y   24021.98017852 -.00000352  00000+0 -10303-2 0  9997,2 55162  87.8964 195.4274 0001262 113.0660 247.0601 13.11418715 50831,13.11418715,0.0001262,LEO
55163,ONEWEB-0622,2023,109.81,148.0,+,87.9,Active,1,LEO,USA,UK,Commercial,Communications,Falcon,1 55163U 23004Z   24021.98669762  .00000071  00000+0  16510-3 0  9994,2 55163  87.8967 195.4401 0000612  61.8563 298.2627 13.11414492 50820,13.11414492,6.12e-05,LEO
55164,ONEWEB-0623,2023,109.29,148.0,+,87.92,Active,1,LEO,USA,UK,Commercial,Communications,Falcon,1 55164U 23004AA  24021.95570656 -.00000179  00000+0 -49527-3 0  9990,2 55164  87.9223 180.3257 0000606 102.3333 257.7866 13.17648430 52068,13.1764843,6.06e-05,LEO
